{
  "type": "FeatureCollection",
  "features": [
    {
      "type": "Feature",
      "properties": {
        "norad_id": 37464,
        "name": "FENGYUN 1C DEB",
        "group": "fengyun-1c-debris",
        "lat": -75.48028029948136,
        "lon": -24.48534193445414,
        "alt_km": 1418.363017856137,
        "timestamp": "2025-12-15T22:44:29.217514+00:00",
        "meta_object_name": "FENGYUN 1C DEB",
        "meta_object_id": "1999-025EJJ",
        "meta_epoch": "2025-12-13T01:39:29.862432",
        "meta_mean_motion": 13.46900293,
        "meta_eccentricity": 0.04522077,
        "meta_inclination": 102.709,
        "meta_ra_of_asc_node": 271.2485,
        "meta_arg_of_pericenter": 116.6375,
        "meta_mean_anomaly": 248.1799,
        "meta_ephemeris_type": 0,
        "meta_classification_type": "U",
        "meta_norad_cat_id": 37464,
        "meta_element_set_no": 999,
        "meta_rev_at_epoch": 60926,
        "meta_bstar": 0.0035932228,
        "meta_mean_motion_dot": 4.008e-05,
        "meta_mean_motion_ddot": 0,
        "tle_line1": "1 37464U 99025EJJ 25347.06909563  .00004008  00000+0  35932-2 0  9993",
        "tle_line2": "2 37464 102.7090 271.2485 0452207 116.6375 248.1799 13.46900293609263"
      },
      "geometry": {
        "type": "Point",
        "coordinates": [
          -24.48534193445414,
          -75.48028029948136
        ]
      }
    },
    {
      "type": "Feature",
      "properties": {
        "norad_id": 37470,
        "name": "FENGYUN 1C DEB",
        "group": "fengyun-1c-debris",
        "lat": -54.166088217446486,
        "lon": -58.48005895327744,
        "alt_km": 570.2794543331811,
        "timestamp": "2025-12-15T22:44:29.217524+00:00",
        "meta_object_name": "FENGYUN 1C DEB",
        "meta_object_id": "1999-025EJQ",
        "meta_epoch": "2025-12-02T08:43:26.114016",
        "meta_mean_motion": 14.99042865,
        "meta_eccentricity": 0.00053598,
        "meta_inclination": 98.6674,
        "meta_ra_of_asc_node": 118.5972,
        "meta_arg_of_pericenter": 185.6749,
        "meta_mean_anomaly": 174.4411,
        "meta_ephemeris_type": 0,
        "meta_classification_type": "U",
        "meta_norad_cat_id": 37470,
        "meta_element_set_no": 999,
        "meta_rev_at_epoch": 65306,
        "meta_bstar": 0.0063565181,
        "meta_mean_motion_dot": 0.00077884,
        "meta_mean_motion_ddot": 0,
        "tle_line1": "1 37470U 99025EJQ 25336.36349669  .00077884  00000+0  63565-2 0  9991",
        "tle_line2": "2 37470  98.6674 118.5972 0005359 185.6749 174.4411 14.99042865653068"
      },
      "geometry": {
        "type": "Point",
        "coordinates": [
          -58.48005895327744,
          -54.166088217446486
        ]
      }
    },
    {
      "type": "Feature",
      "properties": {
        "norad_id": 37474,
        "name": "FENGYUN 1C DEB",
        "group": "fengyun-1c-debris",
        "lat": -75.37299167336674,
        "lon": -22.697743355039467,
        "alt_km": 714.8436467129377,
        "timestamp": "2025-12-15T22:44:29.217535+00:00",
        "meta_object_name": "FENGYUN 1C DEB",
        "meta_object_id": "1999-025EJU",
        "meta_epoch": "2025-12-12T07:18:16.881984",
        "meta_mean_motion": 14.75114553,
        "meta_eccentricity": 0.01319761,
        "meta_inclination": 99.1665,
        "meta_ra_of_asc_node": 191.4007,
        "meta_arg_of_pericenter": 136.3304,
        "meta_mean_anomaly": 224.8435,
        "meta_ephemeris_type": 0,
        "meta_classification_type": "U",
        "meta_norad_cat_id": 37474,
        "meta_element_set_no": 999,
        "meta_rev_at_epoch": 62369,
        "meta_bstar": 0.0018387774,
        "meta_mean_motion_dot": 0.00014243,
        "meta_mean_motion_ddot": 0,
        "tle_line1": "1 37474U 99025EJU 25346.30436206  .00014243  00000+0  18388-2 0  9997",
        "tle_line2": "2 37474  99.1665 191.4007 0131976 136.3304 224.8435 14.75114553623692"
      },
      "geometry": {
        "type": "Point",
        "coordinates": [
          -22.697743355039467,
          -75.37299167336674
        ]
      }
    },
    {
      "type": "Feature",
      "properties": {
        "norad_id": 37477,
        "name": "FENGYUN 1C DEB",
        "group": "fengyun-1c-debris",
        "lat": -18.615936250866394,
        "lon": 171.60122048401112,
        "alt_km": 836.6184108170155,
        "timestamp": "2025-12-15T22:44:29.217545+00:00",
        "meta_object_name": "FENGYUN 1C DEB",
        "meta_object_id": "1999-025EJX",
        "meta_epoch": "2025-12-05T11:28:45.537312",
        "meta_mean_motion": 14.19689266,
        "meta_eccentricity": 0.0036971,
        "meta_inclination": 98.6048,
        "meta_ra_of_asc_node": 344.3504,
        "meta_arg_of_pericenter": 127.046,
        "meta_mean_anomaly": 233.4107,
        "meta_ephemeris_type": 0,
        "meta_classification_type": "U",
        "meta_norad_cat_id": 37477,
        "meta_element_set_no": 999,
        "meta_rev_at_epoch": 81811,
        "meta_bstar": 0.001143971,
        "meta_mean_motion_dot": 2.393e-05,
        "meta_mean_motion_ddot": 0,
        "tle_line1": "1 37477U 99025EJX 25339.47830483  .00002393  00000+0  11440-2 0  9990",
        "tle_line2": "2 37477  98.6048 344.3504 0036971 127.0460 233.4107 14.19689266818115"
      },
      "geometry": {
        "type": "Point",
        "coordinates": [
          171.60122048401112,
          -18.615936250866394
        ]
      }
    },
    {
      "type": "Feature",
      "properties": {
        "norad_id": 37478,
        "name": "FENGYUN 1C DEB",
        "group": "fengyun-1c-debris",
        "lat": 54.69965035450812,
        "lon": -41.828136607369316,
        "alt_km": 1325.202725358563,
        "timestamp": "2025-12-15T22:44:29.217555+00:00",
        "meta_object_name": "FENGYUN 1C DEB",
        "meta_object_id": "1999-025EJY",
        "meta_epoch": "2025-12-14T05:55:23.732544",
        "meta_mean_motion": 13.02983973,
        "meta_eccentricity": 0.05482188,
        "meta_inclination": 99.6498,
        "meta_ra_of_asc_node": 330.5496,
        "meta_arg_of_pericenter": 315.7365,
        "meta_mean_anomaly": 40.1108,
        "meta_ephemeris_type": 0,
        "meta_classification_type": "U",
        "meta_norad_cat_id": 37478,
        "meta_element_set_no": 999,
        "meta_rev_at_epoch": 56581,
        "meta_bstar": 0.0055489953,
        "meta_mean_motion_dot": 3.525e-05,
        "meta_mean_motion_ddot": 0,
        "tle_line1": "1 37478U 99025EJY 25348.24680246  .00003525  00000+0  55490-2 0  9997",
        "tle_line2": "2 37478  99.6498 330.5496 0548218 315.7365  40.1108 13.02983973565818"
      },
      "geometry": {
        "type": "Point",
        "coordinates": [
          -41.828136607369316,
          54.69965035450812
        ]
      }
    },
    {
      "type": "Feature",
      "properties": {
        "norad_id": 37589,
        "name": "FENGYUN 1C DEB",
        "group": "fengyun-1c-debris",
        "lat": 66.87568112932797,
        "lon": 94.54154118312512,
        "alt_km": 927.9008827397129,
        "timestamp": "2025-12-15T22:44:29.217566+00:00",
        "meta_object_name": "FENGYUN 1C DEB",
        "meta_object_id": "1999-025EKH",
        "meta_epoch": "2025-12-14T22:19:52.787712",
        "meta_mean_motion": 14.08203479,
        "meta_eccentricity": 0.01182522,
        "meta_inclination": 99.0734,
        "meta_ra_of_asc_node": 251.544,
        "meta_arg_of_pericenter": 258.1684,
        "meta_mean_anomaly": 100.6202,
        "meta_ephemeris_type": 0,
        "meta_classification_type": "U",
        "meta_norad_cat_id": 37589,
        "meta_element_set_no": 999,
        "meta_rev_at_epoch": 82615,
        "meta_bstar": 0.0019842502,
        "meta_mean_motion_dot": 3.566e-05,
        "meta_mean_motion_ddot": 0,
        "tle_line1": "1 37589U 99025EKH 25348.93047208  .00003566  00000+0  19843-2 0  9998",
        "tle_line2": "2 37589  99.0734 251.5440 0118252 258.1684 100.6202 14.08203479826151"
      },
      "geometry": {
        "type": "Point",
        "coordinates": [
          94.54154118312512,
          66.87568112932797
        ]
      }
    },
    {
      "type": "Feature",
      "properties": {
        "norad_id": 37594,
        "name": "FENGYUN 1C DEB",
        "group": "fengyun-1c-debris",
        "lat": -15.055895371351964,
        "lon": 21.565515570811318,
        "alt_km": 853.4315596556135,
        "timestamp": "2025-12-15T22:44:29.217576+00:00",
        "meta_object_name": "FENGYUN 1C DEB",
        "meta_object_id": "1999-025EKN",
        "meta_epoch": "2025-12-12T01:13:06.397536",
        "meta_mean_motion": 14.11116962,
        "meta_eccentricity": 0.00850219,
        "meta_inclination": 98.7348,
        "meta_ra_of_asc_node": 15.4051,
        "meta_arg_of_pericenter": 271.7365,
        "meta_mean_anomaly": 87.407,
        "meta_ephemeris_type": 0,
        "meta_classification_type": "U",
        "meta_norad_cat_id": 37594,
        "meta_element_set_no": 999,
        "meta_rev_at_epoch": 77752,
        "meta_bstar": 0.00036155709,
        "meta_mean_motion_dot": 6.3e-06,
        "meta_mean_motion_ddot": 0,
        "tle_line1": "1 37594U 99025EKN 25346.05076849  .00000630  00000+0  36156-3 0  9994",
        "tle_line2": "2 37594  98.7348  15.4051 0085021 271.7365  87.4070 14.11116962777528"
      },
      "geometry": {
        "type": "Point",
        "coordinates": [
          21.565515570811318,
          -15.055895371351964
        ]
      }
    }
  ]
}